IRIDIUM 7               
1 24793U 97020B   24207.78175116  .00000700  00000+0  23762-3 0  9993
2 24793  86.3983 313.6694 0002404  96.5992 263.5478 14.35309826425069
IRIDIUM 5               
1 24795U 97020D   24208.14885509  .00003899  00000+0  36692-3 0  9998
2 24795  86.3896 233.2751 0119085 222.9259 136.2628 14.88280124436893
IRIDIUM 914             
1 24836U 97030A   24208.03830897  .00000830  00000+0  25676-3 0  9995
2 24836  86.3964 320.2228 0001899 144.9882 215.1442 14.40108669422278
IRIDIUM 17              
1 24870U 97034B   24207.92558640  .00000791  00000+0  25993-3 0  9995
2 24870  86.3971  11.9176 0002683  53.3466 306.7978 14.37084825416719
IRIDIUM 920             
1 24871U 97034C   24207.97330927  .00000831  00000+0  25329-3 0  9995
2 24871  86.4002 351.8928 0013655  80.4307 279.8435 14.40804629419855
